{"0":{"id":"190","real_name":"Volkshaus","url_name":"volkshaus","address":"Stauffacherstrasse 60","zip":"8004","city":"Z\u00fcrich","gaultmillau":"","latitude":"47.3754997253418","longitude":"8.52721977233887","distance":"88"},"1":{"id":"433","real_name":"Ah-Hua II","url_name":"ah-hua-ii","address":"Ankerstrasse 110","zip":"8004","city":"Z\u00fcrich","gaultmillau":"","latitude":"47.3760986328125","longitude":"8.52787017822266","distance":"114"},"2":{"id":"3021","real_name":"Tinto Tapas y Vino","url_name":"tinto-tapas-y-vino","address":"Langstrasse 20","zip":"8004","city":"Z\u00fcrich","gaultmillau":"","latitude":"47.3751907348633","longitude":"8.52497577667236","distance":"140"},"3":{"id":"501","real_name":"Kobal Curry + Caf\u00e9","url_name":"kobal-curry-cafe","address":"Kanzleistrasse 78","zip":"8004","city":"Z\u00fcrich","gaultmillau":"","latitude":"47.3757019042969","longitude":"8.52439975738525","distance":"152"},"4":{"id":"423","real_name":"Mamma Leone","url_name":"mamma-leone","address":"Rotwandstrasse 49","zip":"8004","city":"Z\u00fcrich","gaultmillau":"","latitude":"47.3754997253418","longitude":"8.52844047546387","distance":"168"},"5":{"id":"459","real_name":"Krokodil","url_name":"krokodil","address":"Hohlstrasse 44","zip":"8004","city":"Z\u00fcrich","gaultmillau":"","latitude":"47.3776016235352","longitude":"8.52624988555908","distance":"175"},"6":{"id":"120","real_name":"Da Teresa Onkel Toms H\u00fctte","url_name":"da-teresa-onkel-toms-hutte","address":"Rotwandstrasse 42","zip":"8004","city":"Z\u00fcrich","gaultmillau":"","latitude":"47.3751983642578","longitude":"8.52840042114258","distance":"180"},"7":{"id":"428","real_name":"Brasserie Lam","url_name":"brasserie-lam","address":"Brauerstrasse 42","zip":"8004","city":"Z\u00fcrich","gaultmillau":"","latitude":"47.3778991699219","longitude":"8.52709007263184","distance":"215"},"8":{"id":"652","real_name":"Italia","url_name":"italia","address":"Zeughausstrasse 61","zip":"8004","city":"Z\u00fcrich","gaultmillau":"","latitude":"47.3763999938965","longitude":"8.52921962738037","distance":"219"},"9":{"id":"107","real_name":"Accademia del Gusto","url_name":"accademia-del-gusto","address":"Rotwandstrasse 62","zip":"8004","city":"Z\u00fcrich","gaultmillau":"","latitude":"47.3757019042969","longitude":"8.52925968170166","distance":"222"},"10":{"id":"817","real_name":"Convivio","url_name":"convivio","address":"Rotwandstrasse 62","zip":"8004","city":"Z\u00fcrich","gaultmillau":"","latitude":"47.3757019042969","longitude":"8.52925968170166","distance":"222"},"11":{"id":"1206","real_name":"Schmuklerski","url_name":"schmuklerski","address":"Badenerstrasse 101","zip":"8004","city":"Z\u00fcrich","gaultmillau":"","latitude":"47.3741645812988","longitude":"8.52516746520996","distance":"226"},"12":{"id":"1181","real_name":"Daniel H.","url_name":"daniel-h","address":"M\u00fcllerstrasse 51","zip":"8004","city":"Z\u00fcrich","gaultmillau":"","latitude":"47.375431060791","longitude":"8.5292501449585","distance":"228"},"13":{"id":"1012","real_name":"Don Leone L'Aperitivo","url_name":"don-leone-laperitivo","address":"B\u00e4ckerstrasse 36","zip":"8004","city":"Z\u00fcrich","gaultmillau":"","latitude":"47.3749732971191","longitude":"8.5290412902832","distance":"234"},"14":{"id":"432","real_name":"Don Leone","url_name":"don-leone","address":"B\u00e4ckerstrasse 31","zip":"8004","city":"Z\u00fcrich","gaultmillau":"","latitude":"47.374698638916","longitude":"8.52906036376953","distance":"252"},"15":{"id":"585","real_name":"Forum","url_name":"forum","address":"Badenerstrasse 120","zip":"8004","city":"Z\u00fcrich","gaultmillau":"","latitude":"47.3744010925293","longitude":"8.52371978759766","distance":"269"},"16":{"id":"422","real_name":"Nachtigall","url_name":"nachtigall","address":"B\u00e4ckerstrasse 30","zip":"8004","city":"Z\u00fcrich","gaultmillau":"","latitude":"47.374698638916","longitude":"8.52950000762939","distance":"279"},"17":{"id":"587","real_name":"Peoples Bar, Club & Lounge","url_name":"gate-125","address":"Badenerstrasse 125","zip":"8004","city":"Z\u00fcrich","gaultmillau":"","latitude":"47.3741989135742","longitude":"8.52350997924805","distance":"296"},"18":{"id":"108","real_name":"Exer","url_name":"exer","address":"Tellstr. 10","zip":"8004","city":"Z\u00fcrich","gaultmillau":"","latitude":"47.3782997131348","longitude":"8.5285701751709","distance":"302"},"19":{"id":"531","real_name":"Paneolio","url_name":"paneolio","address":"Cramerstrasse 8","zip":"8004","city":"Z\u00fcrich","gaultmillau":"","latitude":"47.3731994628906","longitude":"8.52616024017334","distance":"315"},"20":{"id":"4175","real_name":"Der Schwiizer","url_name":"der-schwiizer","address":"Zwinglistrasse 3","zip":"8004","city":"Z\u00fcrich","gaultmillau":"","latitude":"47.3778038024902","longitude":"8.52974700927734","distance":"323"},"21":{"id":"3220","real_name":"Pizzeria Molino Stauffacher","url_name":"pizzeria-molino-zurich-stauffacher","address":"Stauffacherstrasse 31","zip":"8004","city":"Z\u00fcrich","gaultmillau":"","latitude":"47.3736000061035","longitude":"8.52883815765381","distance":"329"},"22":{"id":"390","real_name":"Emilio","url_name":"emilio","address":"Zweierstrasse 9","zip":"8004","city":"Z\u00fcrich","gaultmillau":"","latitude":"47.3730010986328","longitude":"8.52715015411377","distance":"342"},"23":{"id":"359","real_name":"Pflug","url_name":"pflug","address":"Brauerstrasse 74","zip":"8004","city":"Z\u00fcrich","gaultmillau":"","latitude":"47.3791007995605","longitude":"8.52490997314453","distance":"358"},"24":{"id":"315","real_name":"Leo's Bistro","url_name":"leos-bistro","address":"Birmensdorferstrasse 5","zip":"8004","city":"Z\u00fcrich","gaultmillau":"","latitude":"47.3728981018066","longitude":"8.52768039703369","distance":"362"},"25":{"id":"20","real_name":"di Lenardo","url_name":"di-lenardo","address":"Badenerstrasse 155","zip":"8004","city":"Z\u00fcrich","gaultmillau":"","latitude":"47.3742980957031","longitude":"8.52190017700195","distance":"387"},"26":{"id":"487","real_name":"Bubbles","url_name":"bubbles","address":"Werdstrasse 54","zip":"8004","city":"Z\u00fcrich","gaultmillau":"","latitude":"47.3726997375488","longitude":"8.52814960479736","distance":"394"},"27":{"id":"875","real_name":"Certo","url_name":"certo","address":"Strassburgstrasse 5","zip":"8004","city":"Z\u00fcrich","gaultmillau":"","latitude":"47.372200012207","longitude":"8.52892017364502","distance":"468"},"28":{"id":"536","real_name":"Caduff's Wine Loft","url_name":"caduffs-wine-loft","address":"Kanzleistrasse 126","zip":"8004","city":"Z\u00fcrich","gaultmillau":"15","latitude":"47.3772010803223","longitude":"8.52027988433838","distance":"476"},"29":{"id":"72","real_name":"Hermanseck","url_name":"hermanseck","address":"Birmensdorferstrasse 58","zip":"8004","city":"Z\u00fcrich","gaultmillau":"","latitude":"47.3717002868652","longitude":"8.52488040924072","distance":"494"},"30":{"id":"155","real_name":"Camino","url_name":"camino","address":"Freisch\u00fctzgasse 4","zip":"8004","city":"Z\u00fcrich","gaultmillau":"","latitude":"47.3769989013672","longitude":"8.53277015686035","distance":"495"},"31":{"id":"471","real_name":"Werdguet","url_name":"werdguet","address":"Morgartenstrasse 30","zip":"8004","city":"Z\u00fcrich","gaultmillau":"","latitude":"47.3716011047363","longitude":"8.52746963500977","distance":"500"},"32":{"id":"1374","real_name":"Helvti Diner","url_name":"helvti-diner","address":"Kasernenstrasse 2","zip":"8004","city":"Z\u00fcrich","gaultmillau":"","latitude":"47.3735580444336","longitude":"8.53197193145752","distance":"504"},"33":{"id":"482","real_name":"Helvetia","url_name":"helvetia-zurich","address":"Stauffacherquai 1","zip":"8004","city":"Z\u00fcrich","gaultmillau":"14","latitude":"47.3731994628906","longitude":"8.53170013427734","distance":"511"},"34":{"id":"876","real_name":"Greulich","url_name":"greulich","address":"Herman-Greulich-Strasse 56","zip":"8004","city":"Z\u00fcrich","gaultmillau":"15","latitude":"47.3786010742188","longitude":"8.52052974700928","distance":"524"},"35":{"id":"3155","real_name":"Hin & Weg Gare","url_name":"hin-weg-gare","address":"Lagerstrasse 16b","zip":"8004","city":"Z\u00fcrich","gaultmillau":"","latitude":"47.3776893615723","longitude":"8.53303718566895","distance":"536"},"36":{"id":"497","real_name":"Il Giglio","url_name":"il-giglio","address":"Weberstrasse 14","zip":"8004","city":"Z\u00fcrich","gaultmillau":"14","latitude":"47.3708992004395","longitude":"8.5283899307251","distance":"591"},"37":{"id":"444","real_name":"Reithalle","url_name":"reithalle","address":"Gessnerallee 8","zip":"8001","city":"Z\u00fcrich","gaultmillau":"","latitude":"47.3748016357422","longitude":"8.53470993041992","distance":"644"},"38":{"id":"47","real_name":"New Point","url_name":"new-point","address":"Kasernenstrasse 77a","zip":"8004","city":"Z\u00fcrich","gaultmillau":"","latitude":"47.3758010864258","longitude":"8.53534984588623","distance":"678"},"39":{"id":"438","real_name":"Bistro Lochergut","url_name":"bistro-lochergut","address":"Badenerstrasse 230","zip":"8004","city":"Z\u00fcrich","gaultmillau":"","latitude":"47.3758010864258","longitude":"8.51714038848877","distance":"695"},"40":{"id":"436","real_name":"Rio Bar","url_name":"rio-bar","address":"Gessnerallee 17","zip":"8001","city":"Z\u00fcrich","gaultmillau":"","latitude":"47.3763008117676","longitude":"8.53581047058105","distance":"712"},"41":{"id":"3207","real_name":"Loft One","url_name":"loft-one","address":"Hohlstrasse 167","zip":"8004","city":"Z\u00fcrich","gaultmillau":"","latitude":"47.38045501709","longitude":"8.5194454193115","distance":"716"},"42":{"id":"893","real_name":"Way to India","url_name":"way-to-india-zurich","address":"Langstrasse 192","zip":"8005","city":"Z\u00fcrich","gaultmillau":"","latitude":"47.3820991516113","longitude":"8.52960014343262","distance":"718"},"43":{"id":"544","real_name":"Chez Brigitte","url_name":"chez-brigitte","address":"Sihlfeldstrasse 45","zip":"8003","city":"Z\u00fcrich","gaultmillau":"","latitude":"47.3745994567871","longitude":"8.51675987243652","distance":"740"},"44":{"id":"129","real_name":"Talacker 41","url_name":"talacker-41","address":"Talacker 41","zip":"8001","city":"Z\u00fcrich","gaultmillau":"","latitude":"47.3720016479492","longitude":"8.53481960296631","distance":"779"},"45":{"id":"2332","real_name":"Nagasui","url_name":"nagasui","address":"Selnaustrasse  16","zip":"8001","city":"Z\u00fcrich","gaultmillau":null,"latitude":"47.370300292969","longitude":"8.5329303741455","distance":"807"},"46":{"id":"64","real_name":"Desperado","url_name":"desperado-wiedikon","address":"Birmensdorferstrasse 129","zip":"8003","city":"Z\u00fcrich","gaultmillau":"","latitude":"47.369800567627","longitude":"8.52077007293701","distance":"810"},"47":{"id":"539","real_name":"Caf\u00e9 Boy","url_name":"cafe-boy","address":"Kochstrasse 2","zip":"8004","city":"Z\u00fcrich","gaultmillau":"","latitude":"47.3778991699219","longitude":"8.51591014862061","distance":"814"},"48":{"id":"476","real_name":"Mundial","url_name":"mundial","address":"Neugasse 76","zip":"8005","city":"Z\u00fcrich","gaultmillau":"","latitude":"47.38330078125","longitude":"8.52842998504639","distance":"823"},"49":{"id":"46","real_name":"Falcone","url_name":"falcone","address":"Birmensdorferstrasse 150","zip":"8003","city":"Z\u00fcrich","gaultmillau":"","latitude":"47.3702011108398","longitude":"8.51947975158691","distance":"830"},"50":{"id":"211","real_name":"Gertrudhof","url_name":"gertrudhof","address":"Gertrudstrasse 26","zip":"8003","city":"Z\u00fcrich","gaultmillau":"","latitude":"47.3739013671875","longitude":"8.51574993133545","distance":"833"},"51":{"id":"874","real_name":"Tant Pis","url_name":"tant-pis","address":"Konradstrasse 73","zip":"8005","city":"Z\u00fcrich","gaultmillau":"","latitude":"47.3819999694824","longitude":"8.5332498550415","distance":"843"},"52":{"id":"3277","real_name":"Sch\u00fctzengasse","url_name":"schutzengasse","address":"Sch\u00fctzengasse 32","zip":"8001","city":"Z\u00fcrich","gaultmillau":"","latitude":"47.377082824707","longitude":"8.53763198852539","distance":"857"},"53":{"id":"638","real_name":"Cinque","url_name":"cinque","address":"Langstrasse 215","zip":"8005","city":"Z\u00fcrich","gaultmillau":"","latitude":"47.38330078125","longitude":"8.53017997741699","distance":"858"},"54":{"id":"463","real_name":"Eisenhof","url_name":"eisenhof","address":"Gasometerstrasse 20","zip":"8005","city":"Z\u00fcrich","gaultmillau":"","latitude":"47.3835983276367","longitude":"8.52873992919922","distance":"860"},"55":{"id":"97","real_name":"Mishio Bahnhofstrasse","url_name":"mishio-bahnhofstrasse","address":"Sihlstrasse 9","zip":"8001","city":"Z\u00fcrich","gaultmillau":"","latitude":"47.3736991882324","longitude":"8.53730010986328","distance":"864"},"56":{"id":"813","real_name":"Goodman","url_name":"goodman","address":"Brandschenkestrasse 20","zip":"8001","city":"Z\u00fcrich","gaultmillau":"","latitude":"47.3694000244141","longitude":"8.53252983093262","distance":"872"},"57":{"id":"769","real_name":"Vulkan - Indisches Restaurant","url_name":"vulkan-indisches-restaurant","address":"Klingenstrasse 33","zip":"8005","city":"Z\u00fcrich","gaultmillau":"","latitude":"47.3820991516113","longitude":"8.53372001647949","distance":"873"},"58":{"id":"1377","real_name":"Times Restaurant and Store","url_name":"times","address":"Gasometerstrasse 7","zip":"8005","city":"Z\u00fcrich","gaultmillau":"","latitude":"47.3837432861328","longitude":"8.52851390838623","distance":"873"},"59":{"id":"185","real_name":"Jelmoli RestaurantBar","url_name":"jelmoli-restaurantbar","address":"Seidengasse 1","zip":"8001","city":"Z\u00fcrich","gaultmillau":"","latitude":"47.3741989135742","longitude":"8.53765964508057","distance":"875"},"60":{"id":"847","real_name":"Globus Restaurant Z\u00fcrich","url_name":"globus-restaurant-zurich","address":"Schweizergasse 11","zip":"8001","city":"Z\u00fcrich","gaultmillau":"","latitude":"47.3759002685547","longitude":"8.53798961639404","distance":"876"},"61":{"id":"540","real_name":"Taverne da Angelo","url_name":"taverne-da-angelo","address":"Badenerstrasse 275","zip":"8003","city":"Z\u00fcrich","gaultmillau":"","latitude":"47.3760986328125","longitude":"8.51471042633057","distance":"877"},"62":{"id":"1156","real_name":"Yooji`s Josef","url_name":"yoojis-josef","address":"Josefstrasse 112","zip":"8005","city":"Z\u00fcrich","gaultmillau":"","latitude":"47.3836631774902","longitude":"8.53006362915039","distance":"893"},"63":{"id":"1223","real_name":"Hausbar","url_name":"hausbar","address":"Schweizergasse 8","zip":"8001 ","city":"Z\u00fcrich","gaultmillau":"","latitude":"47.3761215209961","longitude":"8.53827285766602","distance":"897"},"64":{"id":"499","real_name":"La Piazzetta","url_name":"la-piazzetta-zurich","address":"Pelikanstrasse 37","zip":"8001","city":"Z\u00fcrich","gaultmillau":"","latitude":"47.3708992004395","longitude":"8.53563022613525","distance":"902"},"65":{"id":"523","real_name":"Zentraleck","url_name":"zentraleck","address":"Zentralstrasse 161","zip":"8003","city":"Z\u00fcrich","gaultmillau":"","latitude":"47.3759002685547","longitude":"8.51418018341064","distance":"917"},"66":{"id":"452","real_name":"Pl\u00fcsch - Caf\u00e9 Bar","url_name":"plusch","address":"Aemtlerstrasse 16","zip":"8003","city":"Z\u00fcrich","gaultmillau":"","latitude":"47.3712997436523","longitude":"8.51636028289795","distance":"918"},"67":{"id":"43","real_name":"Jdaburg","url_name":"jdaburg","address":"Gertrudstrasse 44","zip":"8003","city":"Z\u00fcrich","gaultmillau":"","latitude":"47.3734016418457","longitude":"8.51478958129883","distance":"919"},"68":{"id":"822","real_name":"Manora Z\u00fcrich","url_name":"manora-zurich","address":"Bahnhofstrasse 75","zip":"8021","city":"Z\u00fcrich","gaultmillau":"","latitude":"47.3749008178711","longitude":"8.53847026824951","distance":"921"},"69":{"id":"506","real_name":"Sala of Tokyo","url_name":"sala-of-tokyo","address":"Limmatstrasse 29","zip":"8005","city":"Z\u00fcrich","gaultmillau":"16","latitude":"47.3810005187988","longitude":"8.53619956970215","distance":"924"},"70":{"id":"987","real_name":"Caf\u00e9 Ernst","url_name":"cafe-ernst","address":"Bahnhofstrasse 61","zip":"8001","city":"Z\u00fcrich","gaultmillau":"","latitude":"47.3732528686523","longitude":"8.53800392150879","distance":"930"},"71":{"id":"80","real_name":"0815","url_name":"0815-lintheschergasse","address":"Lintheschergasse 23","zip":"8001","city":"Z\u00fcrich","gaultmillau":"","latitude":"47.3769989013672","longitude":"8.53872013092041","distance":"937"},"72":{"id":"448","real_name":"Kulturmarkt","url_name":"kulturmarkt","address":"Aemtlerstrasse 23","zip":"8003","city":"Z\u00fcrich","gaultmillau":"","latitude":"47.3717994689941","longitude":"8.51539039611816","distance":"950"},"73":{"id":"456","real_name":"Hummer- & Austerbar","url_name":"hummer-austerbar","address":"Bahnhofstrasse 87","zip":"8001","city":"Z\u00fcrich","gaultmillau":"","latitude":"47.3763999938965","longitude":"8.53899955749512","distance":"953"},"74":{"id":"555","real_name":"Cucina","url_name":"cucina","address":"Luisenstrasse 40","zip":"8005","city":"Z\u00fcrich","gaultmillau":"","latitude":"47.3842010498047","longitude":"8.53034019470215","distance":"957"},"75":{"id":"815","real_name":"Picnic","url_name":"picnic","address":"Bahnhofstrasse 52","zip":"8001","city":"Z\u00fcrich","gaultmillau":"","latitude":"47.3727989196777","longitude":"8.53845977783203","distance":"980"},"76":{"id":"78","real_name":"Caf\u00e9 Kr\u00e4nzlin","url_name":"cafe-kranzlin","address":"Sch\u00fctzengasse 16","zip":"8001","city":"Z\u00fcrich","gaultmillau":"","latitude":"47.3764991760254","longitude":"8.53942012786865","distance":"985"},"77":{"id":"851","real_name":"Bottega Berta","url_name":"bottega-berta","address":"Bertastrasse 36","zip":"8003","city":"Z\u00fcrich","gaultmillau":"","latitude":"47.3740997314453","longitude":"8.5135498046875","distance":"988"},"78":{"id":"42","real_name":"Carlton ","url_name":"carlton","address":"Bahnhofstrasse 41","zip":"8001","city":"Z\u00fcrich","gaultmillau":"14","latitude":"47.3714981079102","longitude":"8.53777980804443","distance":"997"},"profiling":{"summary":"api_time:0.00052309036254883"}}